ORBCOMM-X [-]           
1 21576U 91050C   23362.73856087  .00000554  00000+0  18103-3 0  9995
2 21576  98.4135  67.5749 0003907  23.9583 336.1788 14.42308007704769
ORBCOMM FM01 [-]        
1 23545U 95017A   23362.84133757  .00007092  00000+0  99538-3 0  9999
2 23545  69.9693 317.8082 0003350   6.2753 353.8436 14.77811930532964
ORBCOMM FM02 [-]        
1 23546U 95017B   23363.17275321  .00005757  00000+0  81742-3 0  9995
2 23546  69.9711 336.1880 0005704  12.5102 347.6186 14.77426244532962
ORBCOMM FM08 [-]        
1 25112U 97084A   23363.18027920  .00001923  00000+0  62704-3 0  9991
2 25112  45.0159  52.3229 0005257  56.4288 303.7064 14.41760422364087
ORBCOMM FM10 [-]        
1 25113U 97084B   23363.18012890  .00001889  00000+0  61756-3 0  9999
2 25113  45.0167  54.0860 0003812  10.5944 349.4986 14.41695997364075
ORBCOMM FM11 [+]        
1 25114U 97084C   23363.18812700  .00001967  00000+0  64259-3 0  9996
2 25114  45.0155  54.0140 0004493  14.0584 346.0391 14.41584232364060
ORBCOMM FM12 [-]        
1 25115U 97084D   23362.52156454  .00002151  00000+0  69890-3 0  9993
2 25115  45.0159  56.8501 0003669   8.4280 351.6631 14.41558019363972
ORBCOMM FM09 [-]        
1 25116U 97084E   23362.52981858  .00002149  00000+0  69887-3 0  9991
2 25116  45.0163  57.4601 0005253 355.8988   4.1818 14.41529090363942
