<?xml version="1.0" encoding="UTF-8"?>
<ndm xmlns:xsi="http://www.w3.org/2001/XMLSchema-instance" xsi:noNamespaceSchemaLocation="https://sanaregistry.org/r/ndmxml_unqualified/ndmxml-2.0.0-master-2.0.xsd">
<omm id="CCSDS_OMM_VERS" version="2.0">
<header><CREATION_DATE/><ORIGINATOR/></header><body><segment><metadata><OBJECT_NAME>ORBCOMM-X [-]</OBJECT_NAME><OBJECT_ID>1991-050C</OBJECT_ID><CENTER_NAME>EARTH</CENTER_NAME><REF_FRAME>TEME</REF_FRAME><TIME_SYSTEM>UTC</TIME_SYSTEM><MEAN_ELEMENT_THEORY>SGP4</MEAN_ELEMENT_THEORY></metadata><data><meanElements><EPOCH>2023-12-28T17:43:31.659168</EPOCH><MEAN_MOTION>14.42308007</MEAN_MOTION><ECCENTRICITY>.0003907</ECCENTRICITY><INCLINATION>98.4135</INCLINATION><RA_OF_ASC_NODE>67.5749</RA_OF_ASC_NODE><ARG_OF_PERICENTER>23.9583</ARG_OF_PERICENTER><MEAN_ANOMALY>336.1788</MEAN_ANOMALY></meanElements><tleParameters><EPHEMERIS_TYPE>0</EPHEMERIS_TYPE><CLASSIFICATION_TYPE>U</CLASSIFICATION_TYPE><NORAD_CAT_ID>21576</NORAD_CAT_ID><ELEMENT_SET_NO>999</ELEMENT_SET_NO><REV_AT_EPOCH>70476</REV_AT_EPOCH><BSTAR>.18103E-3</BSTAR><MEAN_MOTION_DOT>.554E-5</MEAN_MOTION_DOT><MEAN_MOTION_DDOT>0</MEAN_MOTION_DDOT></tleParameters></data></segment></body></omm>
<omm id="CCSDS_OMM_VERS" version="2.0">
<header><CREATION_DATE/><ORIGINATOR/></header><body><segment><metadata><OBJECT_NAME>ORBCOMM FM01 [-]</OBJECT_NAME><OBJECT_ID>1995-017A</OBJECT_ID><CENTER_NAME>EARTH</CENTER_NAME><REF_FRAME>TEME</REF_FRAME><TIME_SYSTEM>UTC</TIME_SYSTEM><MEAN_ELEMENT_THEORY>SGP4</MEAN_ELEMENT_THEORY></metadata><data><meanElements><EPOCH>2023-12-28T20:11:31.566048</EPOCH><MEAN_MOTION>14.77811930</MEAN_MOTION><ECCENTRICITY>.000335</ECCENTRICITY><INCLINATION>69.9693</INCLINATION><RA_OF_ASC_NODE>317.8082</RA_OF_ASC_NODE><ARG_OF_PERICENTER>6.2753</ARG_OF_PERICENTER><MEAN_ANOMALY>353.8436</MEAN_ANOMALY></meanElements><tleParameters><EPHEMERIS_TYPE>0</EPHEMERIS_TYPE><CLASSIFICATION_TYPE>U</CLASSIFICATION_TYPE><NORAD_CAT_ID>23545</NORAD_CAT_ID><ELEMENT_SET_NO>999</ELEMENT_SET_NO><REV_AT_EPOCH>53296</REV_AT_EPOCH><BSTAR>.99538E-3</BSTAR><MEAN_MOTION_DOT>.7092E-4</MEAN_MOTION_DOT><MEAN_MOTION_DDOT>0</MEAN_MOTION_DDOT></tleParameters></data></segment></body></omm>
<omm id="CCSDS_OMM_VERS" version="2.0">
<header><CREATION_DATE/><ORIGINATOR/></header><body><segment><metadata><OBJECT_NAME>ORBCOMM FM02 [-]</OBJECT_NAME><OBJECT_ID>1995-017B</OBJECT_ID><CENTER_NAME>EARTH</CENTER_NAME><REF_FRAME>TEME</REF_FRAME><TIME_SYSTEM>UTC</TIME_SYSTEM><MEAN_ELEMENT_THEORY>SGP4</MEAN_ELEMENT_THEORY></metadata><data><meanElements><EPOCH>2023-12-29T04:08:45.877344</EPOCH><MEAN_MOTION>14.77426244</MEAN_MOTION><ECCENTRICITY>.0005704</ECCENTRICITY><INCLINATION>69.9711</INCLINATION><RA_OF_ASC_NODE>336.1880</RA_OF_ASC_NODE><ARG_OF_PERICENTER>12.5102</ARG_OF_PERICENTER><MEAN_ANOMALY>347.6186</MEAN_ANOMALY></meanElements><tleParameters><EPHEMERIS_TYPE>0</EPHEMERIS_TYPE><CLASSIFICATION_TYPE>U</CLASSIFICATION_TYPE><NORAD_CAT_ID>23546</NORAD_CAT_ID><ELEMENT_SET_NO>999</ELEMENT_SET_NO><REV_AT_EPOCH>53296</REV_AT_EPOCH><BSTAR>.81742E-3</BSTAR><MEAN_MOTION_DOT>.5757E-4</MEAN_MOTION_DOT><MEAN_MOTION_DDOT>0</MEAN_MOTION_DDOT></tleParameters></data></segment></body></omm>
<omm id="CCSDS_OMM_VERS" version="2.0">
<header><CREATION_DATE/><ORIGINATOR/></header><body><segment><metadata><OBJECT_NAME>ORBCOMM FM08 [-]</OBJECT_NAME><OBJECT_ID>1997-084A</OBJECT_ID><CENTER_NAME>EARTH</CENTER_NAME><REF_FRAME>TEME</REF_FRAME><TIME_SYSTEM>UTC</TIME_SYSTEM><MEAN_ELEMENT_THEORY>SGP4</MEAN_ELEMENT_THEORY></metadata><data><meanElements><EPOCH>2023-12-29T04:19:36.122880</EPOCH><MEAN_MOTION>14.41760422</MEAN_MOTION><ECCENTRICITY>.0005257</ECCENTRICITY><INCLINATION>45.0159</INCLINATION><RA_OF_ASC_NODE>52.3229</RA_OF_ASC_NODE><ARG_OF_PERICENTER>56.4288</ARG_OF_PERICENTER><MEAN_ANOMALY>303.7064</MEAN_ANOMALY></meanElements><tleParameters><EPHEMERIS_TYPE>0</EPHEMERIS_TYPE><CLASSIFICATION_TYPE>U</CLASSIFICATION_TYPE><NORAD_CAT_ID>25112</NORAD_CAT_ID><ELEMENT_SET_NO>999</ELEMENT_SET_NO><REV_AT_EPOCH>36408</REV_AT_EPOCH><BSTAR>.62704E-3</BSTAR><MEAN_MOTION_DOT>.1923E-4</MEAN_MOTION_DOT><MEAN_MOTION_DDOT>0</MEAN_MOTION_DDOT></tleParameters></data></segment></body></omm>
<omm id="CCSDS_OMM_VERS" version="2.0">
<header><CREATION_DATE/><ORIGINATOR/></header><body><segment><metadata><OBJECT_NAME>ORBCOMM FM10 [-]</OBJECT_NAME><OBJECT_ID>1997-084B</OBJECT_ID><CENTER_NAME>EARTH</CENTER_NAME><REF_FRAME>TEME</REF_FRAME><TIME_SYSTEM>UTC</TIME_SYSTEM><MEAN_ELEMENT_THEORY>SGP4</MEAN_ELEMENT_THEORY></metadata><data><meanElements><EPOCH>2023-12-29T04:19:23.136960</EPOCH><MEAN_MOTION>14.41695997</MEAN_MOTION><ECCENTRICITY>.0003812</ECCENTRICITY><INCLINATION>45.0167</INCLINATION><RA_OF_ASC_NODE>54.0860</RA_OF_ASC_NODE><ARG_OF_PERICENTER>10.5944</ARG_OF_PERICENTER><MEAN_ANOMALY>349.4986</MEAN_ANOMALY></meanElements><tleParameters><EPHEMERIS_TYPE>0</EPHEMERIS_TYPE><CLASSIFICATION_TYPE>U</CLASSIFICATION_TYPE><NORAD_CAT_ID>25113</NORAD_CAT_ID><ELEMENT_SET_NO>999</ELEMENT_SET_NO><REV_AT_EPOCH>36407</REV_AT_EPOCH><BSTAR>.61756E-3</BSTAR><MEAN_MOTION_DOT>.1889E-4</MEAN_MOTION_DOT><MEAN_MOTION_DDOT>0</MEAN_MOTION_DDOT></tleParameters></data></segment></body></omm>
<omm id="CCSDS_OMM_VERS" version="2.0">
<header><CREATION_DATE/><ORIGINATOR/></header><body><segment><metadata><OBJECT_NAME>ORBCOMM FM11 [+]</OBJECT_NAME><OBJECT_ID>1997-084C</OBJECT_ID><CENTER_NAME>EARTH</CENTER_NAME><REF_FRAME>TEME</REF_FRAME><TIME_SYSTEM>UTC</TIME_SYSTEM><MEAN_ELEMENT_THEORY>SGP4</MEAN_ELEMENT_THEORY></metadata><data><meanElements><EPOCH>2023-12-29T04:30:54.172800</EPOCH><MEAN_MOTION>14.41584232</MEAN_MOTION><ECCENTRICITY>.0004493</ECCENTRICITY><INCLINATION>45.0155</INCLINATION><RA_OF_ASC_NODE>54.0140</RA_OF_ASC_NODE><ARG_OF_PERICENTER>14.0584</ARG_OF_PERICENTER><MEAN_ANOMALY>346.0391</MEAN_ANOMALY></meanElements><tleParameters><EPHEMERIS_TYPE>0</EPHEMERIS_TYPE><CLASSIFICATION_TYPE>U</CLASSIFICATION_TYPE><NORAD_CAT_ID>25114</NORAD_CAT_ID><ELEMENT_SET_NO>999</ELEMENT_SET_NO><REV_AT_EPOCH>36406</REV_AT_EPOCH><BSTAR>.64259E-3</BSTAR><MEAN_MOTION_DOT>.1967E-4</MEAN_MOTION_DOT><MEAN_MOTION_DDOT>0</MEAN_MOTION_DDOT></tleParameters></data></segment></body></omm>
<omm id="CCSDS_OMM_VERS" version="2.0">
<header><CREATION_DATE/><ORIGINATOR/></header><body><segment><metadata><OBJECT_NAME>ORBCOMM FM12 [-]</OBJECT_NAME><OBJECT_ID>1997-084D</OBJECT_ID><CENTER_NAME>EARTH</CENTER_NAME><REF_FRAME>TEME</REF_FRAME><TIME_SYSTEM>UTC</TIME_SYSTEM><MEAN_ELEMENT_THEORY>SGP4</MEAN_ELEMENT_THEORY></metadata><data><meanElements><EPOCH>2023-12-28T12:31:03.176256</EPOCH><MEAN_MOTION>14.41558019</MEAN_MOTION><ECCENTRICITY>.0003669</ECCENTRICITY><INCLINATION>45.0159</INCLINATION><RA_OF_ASC_NODE>56.8501</RA_OF_ASC_NODE><ARG_OF_PERICENTER>8.4280</ARG_OF_PERICENTER><MEAN_ANOMALY>351.6631</MEAN_ANOMALY></meanElements><tleParameters><EPHEMERIS_TYPE>0</EPHEMERIS_TYPE><CLASSIFICATION_TYPE>U</CLASSIFICATION_TYPE><NORAD_CAT_ID>25115</NORAD_CAT_ID><ELEMENT_SET_NO>999</ELEMENT_SET_NO><REV_AT_EPOCH>36397</REV_AT_EPOCH><BSTAR>.6989E-3</BSTAR><MEAN_MOTION_DOT>.2151E-4</MEAN_MOTION_DOT><MEAN_MOTION_DDOT>0</MEAN_MOTION_DDOT></tleParameters></data></segment></body></omm>
<omm id="CCSDS_OMM_VERS" version="2.0">
<header><CREATION_DATE/><ORIGINATOR/></header><body><segment><metadata><OBJECT_NAME>ORBCOMM FM09 [-]</OBJECT_NAME><OBJECT_ID>1997-084E</OBJECT_ID><CENTER_NAME>EARTH</CENTER_NAME><REF_FRAME>TEME</REF_FRAME><TIME_SYSTEM>UTC</TIME_SYSTEM><MEAN_ELEMENT_THEORY>SGP4</MEAN_ELEMENT_THEORY></metadata><data><meanElements><EPOCH>2023-12-28T12:42:56.325312</EPOCH><MEAN_MOTION>14.41529090</MEAN_MOTION><ECCENTRICITY>.0005253</ECCENTRICITY><INCLINATION>45.0163</INCLINATION><RA_OF_ASC_NODE>57.4601</RA_OF_ASC_NODE><ARG_OF_PERICENTER>355.8988</ARG_OF_PERICENTER><MEAN_ANOMALY>4.1818</MEAN_ANOMALY></meanElements><tleParameters><EPHEMERIS_TYPE>0</EPHEMERIS_TYPE><CLASSIFICATION_TYPE>U</CLASSIFICATION_TYPE><NORAD_CAT_ID>25116</NORAD_CAT_ID><ELEMENT_SET_NO>999</ELEMENT_SET_NO><REV_AT_EPOCH>36394</REV_AT_EPOCH><BSTAR>.69887E-3</BSTAR><MEAN_MOTION_DOT>.2149E-4</MEAN_MOTION_DOT><MEAN_MOTION_DDOT>0</MEAN_MOTION_DDOT></tleParameters></data></segment></body></omm>

</ndm>
